*******************************************************************************
Ephemeris / WWW_USER Mon Mar 24 08:07:08 2025 Pasadena, USA      / Horizons    
*******************************************************************************
Target body name: (2018 VX1)                      {source: JPL#7}
Center body name: Earth (399)                     {source: DE441}
Center-site name: Mauna Kea
*******************************************************************************
Start time      : A.D. 2018-Dec-24 03:59:00.0000 UT      
Stop  time      : A.D. 2018-Dec-24 16:43:00.0000 UT      
Step-size       : 1 minutes
*******************************************************************************
Target pole/equ : undefined
Target radii    : undefined                                                    
Center geodetic : 204.5278, 19.8260847, 4.21024   {E-lon(deg),Lat(deg),Alt(km)}
Center cylindric: 204.5278, 6006.35451, 2151.0229 {E-lon(deg),Dxy(km),Dz(km)}
Center pole/equ : ITRF93                          {East-longitude positive}
Center radii    : 6378.137, 6378.137, 6356.752 km {Equator_a, b, pole_c}       
Target primary  : Sun
Vis. interferer : MOON (R_eq= 1737.400) km        {source: DE441}
Rel. light bend : Sun                             {source: DE441}
Rel. lght bnd GM: 1.3271E+11 km^3/s^2                                          
Small-body perts: Yes                             {source: SB441-N16}
Atmos refraction: NO (AIRLESS)
RA format       : HMS
Time format     : CAL 
Calendar mode   : Mixed Julian/Gregorian
RTS-only print  : NO       
EOP file        : eop.250321.p250617                                           
EOP coverage    : DATA-BASED 1962-JAN-20 TO 2025-MAR-21. PREDICTS-> 2025-JUN-16
Units conversion: 1 au= 149597870.700 km, c= 299792.458 km/s, 1 day= 86400.0 s 
Table cut-offs 1: Elevation (-90.0deg=NO ),Airmass (>38.000=NO), Daylight (YES)
Table cut-offs 2: Solar elongation (  0.0,180.0=NO ),Local Hour Angle( 0.0=NO )
Table cut-offs 3: RA/DEC angular rate (     0.0=NO )                           
*******************************************************************************
Initial IAU76/J2000 heliocentric ecliptic osculating elements (au, days, deg.):
  EPOCH=  2458429.5 ! 2018-Nov-07.00 (TDB)         Residual RMS= .34243        
   EC= .3094465550301519   QR= .9449639043218054   TP= 2458464.0659233886      
   OM= 45.67874041641947   W=  38.97310343924259   IN= 3.356915226222919       
  Equivalent ICRF heliocentric cartesian coordinates (au, au/d):
   X= 7.224620352366717E-01  Y= 6.383229877646874E-01  Z= 2.747435985069854E-01
  VX=-1.546092850205216E-02 VY= 1.016746642579675E-02 VZ= 5.632057443641291E-03
Asteroid physical parameters (km, seconds, rotational period in hours):        
   GM= n.a.                RAD= n.a.               ROTPER= n.a.                
   H= 27.5                 G= .150                 B-V= n.a.                   
                           ALBEDO= n.a.            STYP= n.a.                  
*******************************************************************************
 Date__(UT)__HR:MN     R.A._________(ICRF)_________DEC
******************************************************
$$SOE
 2018-Dec-24 16:17 Nm  13 36 39.480116 +06 08 03.85942
 2018-Dec-24 16:18 Nm  13 36 39.504159 +06 08 03.44141
 2018-Dec-24 16:19 Nm  13 36 39.528176 +06 08 03.02329
 2018-Dec-24 16:20 Nm  13 36 39.552167 +06 08 02.60507
 2018-Dec-24 16:21 Nm  13 36 39.576131 +06 08 02.18674
 2018-Dec-24 16:22 Nm  13 36 39.600070 +06 08 01.76832
 2018-Dec-24 16:23 Nm  13 36 39.623983 +06 08 01.34979
 2018-Dec-24 16:24 Nm  13 36 39.647871 +06 08 00.93115
 2018-Dec-24 16:25 Nm  13 36 39.671734 +06 08 00.51241
 2018-Dec-24 16:26 Nm  13 36 39.695573 +06 08 00.09357
 2018-Dec-24 16:27 Nm  13 36 39.719387 +06 07 59.67462
 2018-Dec-24 16:28 Nm  13 36 39.743177 +06 07 59.25557
 2018-Dec-24 16:29 Nm  13 36 39.766944 +06 07 58.83641
 2018-Dec-24 16:30 Cm  13 36 39.790687 +06 07 58.41715
 2018-Dec-24 16:31 Cm  13 36 39.814407 +06 07 57.99778
 2018-Dec-24 16:32 Cm  13 36 39.838104 +06 07 57.57831
 2018-Dec-24 16:33 Cm  13 36 39.861779 +06 07 57.15873
 2018-Dec-24 16:34 Cm  13 36 39.885431 +06 07 56.73905
 2018-Dec-24 16:35 Cm  13 36 39.909062 +06 07 56.31926
 2018-Dec-24 16:36 Cm  13 36 39.932671 +06 07 55.89937
 2018-Dec-24 16:37 Cm  13 36 39.956258 +06 07 55.47937
 2018-Dec-24 16:38 Cm  13 36 39.979825 +06 07 55.05926
 2018-Dec-24 16:39 Cm  13 36 40.003371 +06 07 54.63905
 2018-Dec-24 16:40 Cm  13 36 40.026896 +06 07 54.21873
 2018-Dec-24 16:41 Cm  13 36 40.050402 +06 07 53.79831
 2018-Dec-24 16:42 Cm  13 36 40.073888 +06 07 53.37778
 2018-Dec-24 16:43 Cm  13 36 40.097354 +06 07 52.95714
